     3.02           N: GNSS NAV DATA    M: Mixed            RINEX VERSION / TYPE
CONVBIN 2.4.2                           20180301 075657 UTC PGM / RUN BY / DATE 
log: GOALLA17.335                                           COMMENT             
format: LEX Receiver                                        COMMENT             
                                                            END OF HEADER       
G 7 2017 12  1 18  0  0  .271921046078E-03 -.522959453519E-11  .000000000000E+00
      .180000000000E+02  .137687500000E+03  .458090509880E-08 -.100640107475E+01
      .714696943760E-05  .110848994227E-01  .590831041336E-05  .515371423531E+04
      .496800000000E+06  .303611159325E-06 -.262070464959E+01  .298023223877E-07
      .960685148095E+00  .265812500000E+03 -.254688237569E+01 -.833820446254E-08
      .298226708054E-09  .100000000000E+01  .197700000000E+04  .000000000000E+00
      .240000000000E+01  .000000000000E+00 -.111758708954E-07  .180000000000E+02
     -.151165440000E+10  .400000000000E+01
G 8 2017 12  1 18  0  0 -.825952738523E-04 -.136424205266E-11  .000000000000E+00
      .780000000000E+02 -.104375000000E+03  .397802284348E-08  .235233477541E+01
     -.540353357792E-05  .294906075578E-02  .116545706987E-04  .515373432350E+04
      .496800000000E+06  .186264514923E-07 -.556568540845E+00  .167638063431E-07
      .968393424376E+00  .157656250000E+03 -.628407497203E+00 -.777353808478E-08
     -.900037490174E-10  .100000000000E+01  .197700000000E+04  .000000000000E+00
      .240000000000E+01  .000000000000E+00  .558793544769E-08  .780000000000E+02
     -.151165440000E+10  .400000000000E+01
G 9 2017 12  1 18  0  0  .478194095194E-03  .443378667114E-11  .000000000000E+00
      .590000000000E+02  .287187500000E+02  .441625538333E-08  .209799932536E+01
      .138208270073E-05  .106967997272E-02  .132732093334E-04  .515373720551E+04
      .496800000000E+06 -.130385160446E-07  .258474065189E+01 -.633299350739E-07
      .953202272381E+00  .116093750000E+03  .174567135376E+01 -.789532887214E-08
     -.511092717635E-09  .100000000000E+01  .197700000000E+04  .000000000000E+00
      .240000000000E+01  .000000000000E+00  .931322574615E-09  .590000000000E+02
     -.151165440000E+10  .400000000000E+01
G13 2017 12  1 17 59 44 -.944477505982E-04 -.341060513165E-12  .000000000000E+00
      .800000000000E+01  .323125000000E+02  .409802784217E-08  .335018000742E+00
      .181049108505E-05  .364991626702E-02  .138878822327E-04  .515367113304E+04
      .496784000000E+06 -.447034835815E-07  .271372564739E+01 -.130385160446E-07
      .969208272672E+00  .115312500000E+03  .166974404900E+01 -.779996775711E-08
     -.367158150754E-09  .100000000000E+01  .197700000000E+04  .000000000000E+00
      .240000000000E+01  .000000000000E+00 -.116415321827E-07  .800000000000E+01
     -.151165440000E+10  .400000000000E+01
G20 2017 12  1 17 59 44  .494356732816E-03  .113686837722E-11  .000000000000E+00
      .800000000000E+01 -.224375000000E+02  .598060625911E-08  .776387012275E+00
     -.119954347610E-05  .464369647671E-02  .422447919846E-05  .515374889183E+04
      .496784000000E+06 -.465661287308E-07  .144599174405E+01 -.353902578354E-07
      .927088655089E+00  .282593750000E+03  .173065382381E+01 -.887751264118E-08
     -.127862468842E-09  .100000000000E+01  .197700000000E+04  .000000000000E+00
      .240000000000E+01  .000000000000E+00 -.838190317154E-08  .800000000000E+01
     -.151165440000E+10  .400000000000E+01
G21 2017 12  1 18  0  0 -.456876587123E-03  .363797880709E-11  .000000000000E+00
      .102000000000E+03  .452500000000E+02  .483841582515E-08 -.201733211775E+01
      .257603824139E-05  .241257684538E-01  .845268368721E-05  .515355856514E+04
      .496800000000E+06  .348314642906E-06  .457515583623E+00  .242143869400E-06
      .941987162026E+00  .197906250000E+03 -.162040115198E+01 -.789961476495E-08
      .761817447040E-09  .100000000000E+01  .197700000000E+04  .000000000000E+00
      .240000000000E+01  .000000000000E+00 -.977888703346E-08  .102000000000E+03
     -.151165440000E+10  .400000000000E+01
G27 2017 12  1 18  0  0  .352575909346E-03  .318323145621E-11  .000000000000E+00
      .550000000000E+02 -.921562500000E+02  .385730352932E-08  .190371668002E+01
     -.482611358166E-05  .511251040734E-02  .113900750875E-04  .515368152428E+04
      .496800000000E+06 -.577419996262E-07 -.549506908003E+00  .540167093277E-07
      .976553992502E+00  .167812500000E+03  .364048940008E+00 -.774246536190E-08
     -.925038531568E-10  .100000000000E+01  .197700000000E+04  .000000000000E+00
      .240000000000E+01  .000000000000E+00  .186264514923E-08  .550000000000E+02
     -.151165440000E+10  .400000000000E+01
G28 2017 12  1 18  0  0  .667296350002E-03  .329691829393E-11  .000000000000E+00
      .910000000000E+02 -.825625000000E+02  .413588656199E-08  .274768584963E+01
     -.417977571487E-05  .200188412564E-01  .154785811901E-05  .515366336250E+04
      .496800000000E+06  .223517417908E-06 -.150846799690E+01 -.242143869400E-07
      .987039402244E+00  .361250000000E+03 -.154730967150E+01 -.793175896103E-08
     -.410374236591E-09  .100000000000E+01  .197700000000E+04  .000000000000E+00
      .340000000000E+01  .000000000000E+00 -.111758708954E-07  .910000000000E+02
     -.151165440000E+10  .400000000000E+01
G30 2017 12  1 18  0  0  .123988837004E-03 -.284217094304E-11  .000000000000E+00
      .890000000000E+02  .143937500000E+03  .492556231230E-08 -.950830364301E+00
      .737048685551E-05  .301863090135E-02  .563450157642E-05  .515360234642E+04
      .496800000000E+06  .912696123123E-07 -.258453975373E+01 -.987201929092E-07
      .946333798853E+00  .263156250000E+03 -.306870933903E+01 -.848749639544E-08
      .318227541169E-09  .100000000000E+01  .197700000000E+04  .000000000000E+00
      .240000000000E+01  .000000000000E+00  .372529029846E-08  .890000000000E+02
     -.151165440000E+10  .400000000000E+01
G 2 2017 12  1 16  0  0  .434136018157E-05  .113686837722E-12  .000000000000E+00
      .930000000000E+02  .742000000000E+03  .190722230061E-08 -.194502427713E+01
      .263955444098E-04  .744159767637E-01 -.203084200621E-04  .649320457077E+04
      .489600000000E+06  .838190317154E-07 -.240514290111E+01 -.139698386192E-06
      .777416799810E+00  .878250000000E+03 -.155711258753E+01 -.339264131713E-08
      .630383400856E-09  .200000000000E+01  .197700000000E+04  .100000000000E+01
      .340000000000E+01  .000000000000E+00  .931322574615E-09  .861000000000E+03
     -.151165440000E+10  .400000000000E+01
G 3 2017 12  1 16  0  0 -.119950622320E-03  .545696821064E-11  .000000000000E+00
      .930000000000E+02 -.102400000000E+04  .976112087558E-09  .264399623792E+01
     -.317916274071E-04  .747806009604E-01  .337921082973E-04  .649314603806E+04
      .489600000000E+06  .322237610817E-06 -.714784440430E+00 -.521540641785E-07
      .706935064237E+00 -.956125000000E+03 -.158846007074E+01 -.192543734505E-08
     -.201079804352E-09  .200000000000E+01  .197700000000E+04  .100000000000E+01
      .340000000000E+01  .620000000000E+02  .931322574615E-09  .861000000000E+03
     -.151165440000E+10  .400000000000E+01
G15 2017 12  1 18  0  0 -.357328448445E-03 -.113686837722E-12  .000000000000E+00
      .340000000000E+02 -.193750000000E+01  .518878756240E-08  .100115125863E+01
      .240281224251E-06  .999330473132E-02  .124834477901E-04  .515365921402E+04
      .496800000000E+06 -.128522515297E-06  .251847917896E+01  .875443220139E-07
      .928714410580E+00  .122656250000E+03  .642398427319E+00 -.833427572747E-08
     -.645026867958E-09  .100000000000E+01  .197700000000E+04  .000000000000E+00
      .240000000000E+01  .000000000000E+00 -.107102096081E-07  .340000000000E+02
     -.151165440000E+10  .400000000000E+01
G11 2017 12  1 17 59 44 -.728868879378E-03 -.159161572810E-11  .000000000000E+00
      .600000000000E+02  .197812500000E+02  .568559397067E-08 -.100297944980E+01
      .104308128357E-05  .168787236325E-01  .120922923088E-04  .515374975204E+04
      .496784000000E+06 -.257045030594E-06  .918537193790E-01  .165775418282E-06
      .903534470032E+00  .121968750000E+03  .172288513779E+01 -.882251035011E-08
      .692886004340E-09  .100000000000E+01  .197700000000E+04  .000000000000E+00
      .240000000000E+01  .000000000000E+00 -.121071934700E-07  .600000000000E+02
     -.151165440000E+10  .400000000000E+01
G18 2017 12  1 18  0  0  .633182004094E-03  .227373675443E-12  .000000000000E+00
      .140000000000E+02 -.355937500000E+02  .581809949005E-08 -.293542356333E+01
     -.188313424587E-05  .182122860570E-01  .404380261898E-05  .515363391113E+04
      .496800000000E+06  .359490513802E-06  .149709893929E+01 -.651925802231E-07
      .925673668058E+00  .279468750000E+03 -.176936210222E+01 -.850463996668E-08
     -.127148153374E-09  .100000000000E+01  .197700000000E+04  .000000000000E+00
      .240000000000E+01  .000000000000E+00 -.111758708954E-07  .140000000000E+02
     -.151165440000E+10  .400000000000E+01
